ONEWEB-0691             
1 61599U 24188F   26194.44195639 -.00000217  00000+0 -64716-3 0  9994
2 61599  87.8899  15.7473 0001732  77.2665 282.8656 13.11414414 87921
ONEWEB-0692             
1 61600U 24188G   26194.46229411 -.00000444  00000+0 -12893-2 0  9995
2 61600  87.8881  15.8517 0002576  96.6902 263.4519 13.11418478 87917
ONEWEB-0693             
1 61601U 24188H   26194.46925809  .00000017  00000+0  96412-5 0  9996
2 61601  87.9133   0.6647 0001325 113.3853 246.7418 13.17650345 89346
ONEWEB-0695             
1 61602U 24188J   26194.51486433 -.00000066  00000+0 -22230-3 0  9999
2 61602  87.8881  15.8331 0002390  89.6506 270.4896 13.11414729 87910
ONEWEB-0697             
1 61603U 24188K   26194.47078141 -.00000140  00000+0 -42974-3 0  9998
2 61603  87.8884  15.8324 0002564  98.7011 261.4407 13.11418708 87897
ONEWEB-0698             
1 61604U 24188L   26194.44873684 -.00000388  00000+0 -11310-2 0  9994
2 61604  87.8879  15.8504 0002404 118.9024 241.2345 13.11415954 87914
ONEWEB-0699             
1 61605U 24188M   26194.48222973 -.00000181  00000+0 -55545-3 0  9998
2 61605  87.8813  31.0255 0002365  97.8191 262.3205 13.10369969 86755
ONEWEB-0700             
1 61606U 24188N   26194.48390884 -.00000243  00000+0 -73154-3 0  9991
2 61606  87.8832  30.9387 0002419  97.1300 263.0102 13.10368608 86748
ONEWEB-0701             
1 61607U 24188P   26194.50088731 -.00000665  00000+0 -19426-2 0  9999
2 61607  87.8819  31.0224 0002517 100.2985 259.8426 13.10373514 86755
ONEWEB-0702             
1 61608U 24188Q   26194.49453091  .00000609  00000+0  16823-2 0  9997
2 61608  87.8898  15.7518 0002849  95.4684 264.6769 13.11416514 87931
ONEWEB-0704             
1 61609U 24188R   26194.48900193 -.00000455  00000+0 -13393-2 0  9997
2 61609  87.8821  31.0146 0002844  91.2439 268.9014 13.10369859 86738
ONEWEB-0705             
1 61610U 24188S   26194.49409993 -.00000609  00000+0 -17803-2 0  9993
2 61610  87.8822  31.0196 0002723  74.9710 285.1719 13.10371491 78900
ONEWEB-0706             
1 61611U 24188T   26194.47883609 -.00000014  00000+0 -76690-4 0  9993
2 61611  87.8816  31.0263 0002412  86.4414 273.6989 13.10369671 86821
ONEWEB-0707             
1 61612U 24188U   26194.48560339 -.00000339  00000+0 -10063-2 0  9997
2 61612  87.8821  31.0200 0002410  88.6077 271.5326 13.10368454 86769
ONEWEB-0708             
1 61613U 24188V   26194.50426962 -.00000544  00000+0 -15959-2 0  9991
2 61613  87.8820  31.0328 0002068  71.5008 288.6344 13.10373007 86741
