OBJECT_NAME,OBJECT_ID,EPOCH,MEAN_MOTION,ECCENTRICITY,INCLINATION,RA_OF_ASC_NODE,ARG_OF_PERICENTER,MEAN_ANOMALY,EPHEMERIS_TYPE,CLASSIFICATION_TYPE,NORAD_CAT_ID,ELEMENT_SET_NO,REV_AT_EPOCH,BSTAR,MEAN_MOTION_DOT,MEAN_MOTION_DDOT
ONEWEB-0691,2024-188F,2026-07-13T10:36:25.032096,13.11414414,.0001732,87.8899,15.7473,77.2665,282.8656,0,U,61599,999,8792,-.64716E-3,-.217E-5,0
ONEWEB-0692,2024-188G,2026-07-13T11:05:42.211104,13.11418478,.0002576,87.8881,15.8517,96.6902,263.4519,0,U,61600,999,8791,-.12893E-2,-.444E-5,0
ONEWEB-0693,2024-188H,2026-07-13T11:15:43.898976,13.17650345,.0001325,87.9133,0.6647,113.3853,246.7418,0,U,61601,999,8934,.96412E-5,.17E-6,0
ONEWEB-0695,2024-188J,2026-07-13T12:21:24.278112,13.11414729,.000239,87.8881,15.8331,89.6506,270.4896,0,U,61602,999,8791,-.2223E-3,-.66E-6,0
ONEWEB-0697,2024-188K,2026-07-13T11:17:55.513824,13.11418708,.0002564,87.8884,15.8324,98.7011,261.4407,0,U,61603,999,8789,-.42974E-3,-.14E-5,0
ONEWEB-0698,2024-188L,2026-07-13T10:46:10.862976,13.11415954,.0002404,87.8879,15.8504,118.9024,241.2345,0,U,61604,999,8791,-.1131E-2,-.388E-5,0
ONEWEB-0699,2024-188M,2026-07-13T11:34:24.648672,13.10369969,.0002365,87.8813,31.0255,97.8191,262.3205,0,U,61605,999,8675,-.55545E-3,-.181E-5,0
ONEWEB-0700,2024-188N,2026-07-13T11:36:49.723776,13.10368608,.0002419,87.8832,30.9387,97.1300,263.0102,0,U,61606,999,8674,-.73154E-3,-.243E-5,0
ONEWEB-0701,2024-188P,2026-07-13T12:01:16.663584,13.10373514,.0002517,87.8819,31.0224,100.2985,259.8426,0,U,61607,999,8675,-.19426E-2,-.665E-5,0
ONEWEB-0702,2024-188Q,2026-07-13T11:52:07.470624,13.11416514,.0002849,87.8898,15.7518,95.4684,264.6769,0,U,61608,999,8793,.16823E-2,.609E-5,0
ONEWEB-0704,2024-188R,2026-07-13T11:44:09.766752,13.10369859,.0002844,87.8821,31.0146,91.2439,268.9014,0,U,61609,999,8673,-.13393E-2,-.455E-5,0
ONEWEB-0705,2024-188S,2026-07-13T11:51:30.233952,13.10371491,.0002723,87.8822,31.0196,74.9710,285.1719,0,U,61610,999,7890,-.17803E-2,-.609E-5,0
ONEWEB-0706,2024-188T,2026-07-13T11:29:31.438176,13.10369671,.0002412,87.8816,31.0263,86.4414,273.6989,0,U,61611,999,8682,-.7669E-4,-.14E-6,0
ONEWEB-0707,2024-188U,2026-07-13T11:39:16.132896,13.10368454,.000241,87.8821,31.0200,88.6077,271.5326,0,U,61612,999,8676,-.10063E-2,-.339E-5,0
ONEWEB-0708,2024-188V,2026-07-13T12:06:08.895168,13.10373007,.0002068,87.8820,31.0328,71.5008,288.6344,0,U,61613,999,8674,-.15959E-2,-.544E-5,0
